NAME,EMAIL,PHONE,ADDRESS,CITY,STATE
,My Active Listings,Rick Stevens,My Active Listings,,
,My Active Listings,Baret Barry,My Active Listings,Jupiter, FL 33458
,My Active Listings,Kristen Ferreira,My Active Listings,PORT SAINT LUCIE, FL 34953
,My Active Listings,Leilani Lagoc,My Active Listings,Plantation, FL 33324
,My Active Listings,Karina Guerrero,My Active Listings,Doral, FL 33178
,My Active Listings,Dariko Kviraya,My Active Listings,Sunny Isles Beach, FL 33160
,My Active Listings,Maria Vasconez,My Active Listings,Jacksonville, FL 32256
,My Active Listings,Charlotte Bensberg,My Active Listings,Pompano Beach, FL 33060
,My Active Listings,Dave Rivera,My Active Listings,Boca Raton, FL 33431
,My Active Listings,Evian White De Leon,My Active Listings,Miami, FL 33166
,My Active Listings,Christine Elbadramany,My Active Listings,North Miami Beach, FL 33162
,My Active Listings,Jessica Paulo,My Active Listings,Miami, FL 33126
,My Active Listings,Gissella Breighner,My Active Listings,Miramar, FL 33027
,My Active Listings,Chanel Rodriguez,My Active Listings,Miami, FL 33166
,My Active Listings,Chanel Rodriguez,My Active Listings,Miami, FL 33166
,My Active Listings,Evian White De Leon,My Active Listings,Miami, FL 33166
,My Active Listings,Christine Elbadramany,My Active Listings,North Miami Beach, FL 33162
,My Active Listings,Jessica Paulo,My Active Listings,Miami, FL 33126
,My Active Listings,Gissella Breighner,My Active Listings,Miramar, FL 33027
